X,Y,NAME,SIRUTA,OLD_POSTAL,RANG,TIP,SIRUTA_SUP,NAME_SUP,COUNTY,COUNTY_ID,COUNTY_MN,POP2002,REGION,REGION_ID,ENVIRO_TYP,SORT_CODE
24.559781324563772,46.540506175821577,Targu Mures,114328,4300,II,9,114319,Municipiul Targu Mures,Mures,26,MS,161216,Centru,7,urban,2811757111911
24.521608194769481,46.523275583688033,Mureseni,114337,4310,V,10,114319,Municipiul Targu Mures,Mures,26,MS,970,Centru,7,urban,2811757507828
24.521369336476017,46.57294275801317,Remetea,114346,4310,V,10,114319,Municipiul Targu Mures,Mures,26,MS,2259,Centru,7,urban,2811757509950
24.485865725140307,46.506483983478475,Cristesti,114364,4310,IV,22,114355,Cristesti,Mures,26,MS,4690,Centru,7,rural,2850783303580
24.546006622246285,46.500213914868205,Valureni,114373,4310,V,23,114355,Cristesti,Mures,26,MS,932,Centru,7,rural,2850783713161
24.547213082096395,46.559163854316743,Sancraiu de Mures,114391,4323,IV,22,114382,Sancraiu de Mures,Mures,26,MS,4098,Centru,7,rural,2852518310592
24.502099772418415,46.535519825316442,Nazna,114408,4323,V,23,114382,Sancraiu de Mures,Mures,26,MS,2029,Centru,7,rural,2852518707875
24.608249798030098,46.57694278773338,Sangeorgiu de Mures,114426,4328,IV,22,114417,Sangeorgiu de Mures,Mures,26,MS,7120,Centru,7,rural,2852521310600
24.671698964566655,46.575620896560473,Cotus,114435,4297,V,23,114417,Sangeorgiu de Mures,Mures,26,MS,301,Centru,7,rural,2852521703449
24.657705044362192,46.587061186894424,Tofalau,114444,4297,V,23,114417,Sangeorgiu de Mures,Mures,26,MS,21,Centru,7,rural,2852521712110
24.556633212592306,46.576584327349828,Santana de Mures,114462,4317,IV,22,114453,Santana de Mures,Mures,26,MS,1836,Centru,7,rural,2852536310652
24.513893706509339,46.594883953682405,Bardesti,114471,4319,V,23,114453,Santana de Mures,Mures,26,MS,311,Centru,7,rural,2852536700774
24.589691175439757,46.605256887555726,Chinari,114480,4318,V,23,114453,Santana de Mures,Mures,26,MS,567,Centru,7,rural,2852536702648
24.575010557153014,46.594361314598771,Curteni,114499,4317,V,23,114453,Santana de Mures,Mures,26,MS,881,Centru,7,rural,2852536703746
24.7927944806714,46.221413417242793,Sighisoara,114523,3050,II,9,114514,Municipiul Sighisoara,Mures,26,MS,34537,Centru,7,urban,2821751110908
24.784179893304501,46.186582287486047,Angofa,114532,3060,V,10,114514,Municipiul Sighisoara,Mures,26,MS,4,Centru,7,urban,2821751500220
24.820718050617401,46.177871750875468,Aurel Vlaicu,114541,3060,V,10,114514,Municipiul Sighisoara,Mures,26,MS,120,Centru,7,urban,2821751500365
24.74332761248559,46.226064443468296,Rora,114550,3083,V,10,114514,Municipiul Sighisoara,Mures,26,MS,143,Centru,7,urban,2821751510062
24.77109994454268,46.260245374260684,Soromiclea,114569,3060,V,10,114514,Municipiul Sighisoara,Mures,26,MS,120,Centru,7,urban,2821751511671
24.741622439834334,46.244111512101824,Venchi,114578,3060,V,10,114514,Municipiul Sighisoara,Mures,26,MS,257,Centru,7,urban,2821751513297
24.809332783301109,46.237558374270066,Viilor,114587,3060,V,10,114514,Municipiul Sighisoara,Mures,26,MS,124,Centru,7,urban,2821751513376
24.77106661449891,46.271394314435483,Hetiur,114596,3076,V,11,114514,Municipiul Sighisoara,Mures,26,MS,865,Centru,7,urban,2821751505811
24.850854758632344,46.238042884200794,Albesti,114612,3068,IV,22,114603,Albesti,Mures,26,MS,3080,Centru,7,rural,2850027300099
24.834903841132672,46.294431855314457,Barlibasoaia,114621,3060,V,23,114603,Albesti,Mures,26,MS,0,Centru,7,rural,2850027700843
24.872848195768508,46.266315395987803,Boiu,114630,3071,V,23,114603,Albesti,Mures,26,MS,1544,Centru,7,rural,2850027701309
24.815560494757335,46.321919165391982,Jacu,114649,3065,V,23,114603,Albesti,Mures,26,MS,22,Centru,7,rural,2850027706341
24.857949065386368,46.17225491193517,Sapartoc,114658,3060,V,23,114603,Albesti,Mures,26,MS,55,Centru,7,rural,2850027711489
24.881618619825161,46.254446921224435,Topa,114667,3070,V,23,114603,Albesti,Mures,26,MS,383,Centru,7,rural,2850027712421
24.848338525958621,46.214616600499099,Valea Albestiului,114676,3068,V,23,114603,Albesti,Mures,26,MS,397,Centru,7,rural,2850027712666
24.896123466950172,46.225693025242585,Valea Daii,114685,3069,V,23,114603,Albesti,Mures,26,MS,7,Centru,7,rural,2850027712743
24.850214700075266,46.20631346762503,Valea Sapartocului,114694,3068,V,23,114603,Albesti,Mures,26,MS,6,Centru,7,rural,2850027712994
24.097168092112032,46.481860855958452,Ludus,114729,4350,III,17,114710,Oras Ludus,Mures,26,MS,16000,Centru,7,urban,2831974206762
24.099283566947761,46.536208428672623,Avramesti,114738,4360,V,18,114710,Oras Ludus,Mures,26,MS,208,Centru,7,urban,2831974600382
24.071617468390929,46.495307455078127,Cioarga,114747,4360,V,18,114710,Oras Ludus,Mures,26,MS,209,Centru,7,urban,2831974602759
24.10504362797284,46.501322638932855,Ciurgau,114756,4360,V,18,114710,Oras Ludus,Mures,26,MS,89,Centru,7,urban,2831974602939
24.043574202674531,46.543289633977594,Fundatura,114765,4360,V,18,114710,Oras Ludus,Mures,26,MS,5,Centru,7,urban,2831974604917
24.064906328399399,46.447274177473865,Gheja,114774,4361,V,18,114710,Oras Ludus,Mures,26,MS,1429,Centru,7,urban,2831974605163
24.094755784111339,46.514334363047141,Rosiori,114783,4360,V,18,114710,Oras Ludus,Mures,26,MS,849,Centru,7,urban,2831974610098
24.701938154870867,46.779964232070306,Reghin,114818,4225,II,9,114809,Municipiul Reghin,Mures,26,MS,35004,Centru,7,urban,2821740109944
24.694472173738376,46.752116130920939,Apalina,114827,4225,V,10,114809,Municipiul Reghin,Mures,26,MS,2863,Centru,7,urban,2821740500244
24.71919153179563,46.76386653005035,Iernuteni,114836,4225,V,10,114809,Municipiul Reghin,Mures,26,MS,1373,Centru,7,urban,2821740506087
25.070578717040764,46.597473537917082,Sovata,114863,3295,III,17,114854,Oras Sovata,Mures,26,MS,8935,Centru,7,urban,2832039211144
25.078759890949748,46.631470204059298,Capeti,114872,3295,V,18,114854,Oras Sovata,Mures,26,MS,178,Centru,7,urban,2832039602227
25.128017062315557,46.582550772378895,Iliesi,114881,3295,V,18,114854,Oras Sovata,Mures,26,MS,452,Centru,7,urban,2832039606129
25.062059607654898,46.624534296644534,Sacadat,114890,3295,V,18,114854,Oras Sovata,Mures,26,MS,937,Centru,7,urban,2832039610387
25.013305749947339,46.562466411340978,Sarateni,114907,3296,V,22,120496,Sarateni,Mures,26,MS,1610,Centru,7,rural,2852500310515
24.296618171931925,46.331913816382624,Tarnaveni,114934,3225,II,9,114925,Municipiul Tarnaveni,Mures,26,MS,28634,Centru,7,urban,2821759111928
24.301573442895386,46.282317509508886,Botorca,114943,3228,V,10,114925,Municipiul Tarnaveni,Mures,26,MS,406,Centru,7,urban,2821759501452
24.231659454002124,46.351914404161541,Bobohalma,114961,3237,V,11,114925,Municipiul Tarnaveni,Mures,26,MS,1480,Centru,7,urban,2821759501187
24.635072028976001,46.479971105460379,Acatari,114989,4329,IV,22,114970,Acatari,Mures,26,MS,1062,Centru,7,rural,2850005300015
24.592014573086235,46.428663320331651,Corbesti,114998,4331,V,23,114970,Acatari,Mures,26,MS,116,Centru,7,rural,2850005703205
24.670879958497896,46.425497291732995,Gaiesti,115003,4331,V,23,114970,Acatari,Mures,26,MS,446,Centru,7,rural,2850005705011
24.617170122553329,46.452738828613178,Gruisor,115012,4329,V,23,114970,Acatari,Mures,26,MS,296,Centru,7,rural,2850005705567
24.655164321851053,46.480879006969339,Murgesti,115021,4329,V,23,114970,Acatari,Mures,26,MS,502,Centru,7,rural,2850005707837
24.681825714432023,46.458748944493657,Roteni,115030,4329,V,23,114970,Acatari,Mures,26,MS,851,Centru,7,rural,2850005710118
24.617352512578268,46.480705250574509,Stejeris,115049,4329,V,23,114970,Acatari,Mures,26,MS,350,Centru,7,rural,2850005711275
24.716537824937003,46.433519439844268,Suveica,115058,4331,V,23,114970,Acatari,Mures,26,MS,296,Centru,7,rural,2850005711476
24.647085787914957,46.446913980094088,Valenii,115067,4329,V,23,114970,Acatari,Mures,26,MS,786,Centru,7,rural,2850005713147
24.236951531910677,46.303924897846592,Adamus,115085,3230,IV,22,115076,Adamus,Mures,26,MS,2128,Centru,7,rural,2850008300027
24.183232784063019,46.352353603845167,Chincius,115094,3234,V,23,115076,Adamus,Mures,26,MS,40,Centru,7,rural,2850008702649
24.212774701632828,46.292180282467093,Cornesti,115101,3231,V,23,115076,Adamus,Mures,26,MS,1324,Centru,7,rural,2850008703261
24.196748134568214,46.296280411777104,Craiesti,115110,4264,V,23,115076,Adamus,Mures,26,MS,1291,Centru,7,rural,2850008703521
24.234430143669819,46.31997941524105,Dambau,115129,3233,V,23,115076,Adamus,Mures,26,MS,1229,Centru,7,rural,2850008703870
24.155156961926068,46.330742795660981,Herepea,115138,3235,V,23,115076,Adamus,Mures,26,MS,72,Centru,7,rural,2850008705800
24.829929918327668,46.894693756746605,Alunis,115156,4235,IV,22,115147,Alunis,Mures,26,MS,2154,Centru,7,rural,2850050300182
24.870002298568725,46.899082385560249,Fitcau,115165,4237,V,23,115147,Alunis,Mures,26,MS,481,Centru,7,rural,2850050704773
24.790950677406521,46.873963748694138,Lunca Muresului,115174,4235,V,23,115147,Alunis,Mures,26,MS,732,Centru,7,rural,2850050706852
24.818869358014265,46.125362029534195,Apold,115192,3081,IV,22,115183,Apold,Mures,26,MS,691,Centru,7,rural,2850069300251
24.902744548752384,46.147078729038057,Daia,115209,3082,V,23,115183,Apold,Mures,26,MS,574,Centru,7,rural,2850069703793
24.768940448636982,46.156380347096885,Saes,115218,3080,V,23,115183,Apold,Mures,26,MS,1112,Centru,7,rural,2850069711478
24.853685981565064,46.148430310132902,Vulcan,115227,3081,V,23,115183,Apold,Mures,26,MS,94,Centru,7,rural,2850069713581
24.106669805501163,46.429565148277035,Atintis,115245,4362,IV,22,115236,Atintis,Mures,26,MS,723,Centru,7,rural,2850095300361
24.024299345522888,46.386745721185818,Botez,115254,4363,V,23,115236,Atintis,Mures,26,MS,203,Centru,7,rural,2850095701445
24.040132436367475,46.394491995931027,Cecalaca,115263,4363,V,23,115236,Atintis,Mures,26,MS,436,Centru,7,rural,2850095702440
24.105241045680163,46.392678647431936,Istihaza,115272,4365,V,23,115236,Atintis,Mures,26,MS,223,Centru,7,rural,2850095706226
24.039772941833725,46.411334079780374,Maldaoci,115281,4361,V,23,115236,Atintis,Mures,26,MS,0,Centru,7,rural,2850095706962
24.133402248941433,46.422823396279853,Saniacob,115290,4356,V,23,115236,Atintis,Mures,26,MS,36,Centru,7,rural,2850095710609
24.478743124820014,46.374377553488884,Bahnea,115316,3248,IV,22,115307,Bahnea,Mures,26,MS,1850,Centru,7,rural,2850107300416
24.458465667064583,46.374067660985801,Bernadea,115325,3248,V,23,115307,Bahnea,Mures,26,MS,194,Centru,7,rural,2850107701024
24.512288138298445,46.272780768119816,Cund,115334,3089,V,23,115307,Bahnea,Mures,26,MS,197,Centru,7,rural,2850107703703
24.46276184412282,46.30560154183091,Daia,115343,3251,V,23,115307,Bahnea,Mures,26,MS,261,Centru,7,rural,2850107703794
24.517119173224472,46.30491657082937,Gogan,115352,3090,V,23,115307,Bahnea,Mures,26,MS,724,Centru,7,rural,2850107705377
24.461049579807206,46.276249613993059,Idiciu,115361,3251,V,23,115307,Bahnea,Mures,26,MS,371,Centru,7,rural,2850107706071
24.475459158614633,46.328885151099904,Lepindea,115370,3251,V,23,115307,Bahnea,Mures,26,MS,270,Centru,7,rural,2850107706587
24.373075892882756,46.579355885418543,Band,115398,4344,IV,22,115389,Band,Mures,26,MS,3441,Centru,7,rural,2850126300481
24.338442290662201,46.620416763104458,Draculea Bandului,115405,4344,V,23,115389,Band,Mures,26,MS,170,Centru,7,rural,2850126704278
24.314564859233851,46.642708316047802,Fanate,115414,4344,V,23,115389,Band,Mures,26,MS,312,Centru,7,rural,2850126704613
24.362732476072789,46.625961581374881,Fanatele Madarasului,115423,4344,V,23,115389,Band,Mures,26,MS,331,Centru,7,rural,2850126704618
24.303103829658539,46.650152544632327,Istan-Tau,115432,4344,V,23,115389,Band,Mures,26,MS,148,Centru,7,rural,2850126706225
24.434455649178922,46.604877062730544,Madaras,115441,4344,V,22,120502,Madaras,Mures,26,MS,1282,Centru,7,rural,2851503307077
24.35327525842721,46.5930218826798,Marasesti,115450,4344,V,23,115389,Band,Mures,26,MS,346,Centru,7,rural,2850126707207
24.287431568339738,46.645611652155139,Negrenii de Campie,115469,4344,V,23,115389,Band,Mures,26,MS,176,Centru,7,rural,2850126707958
24.354700230724724,46.543091640934108,Oroiu,115478,4344,V,23,115389,Band,Mures,26,MS,386,Centru,7,rural,2850126708352
24.345754311951588,46.510387372344354,Petea,115487,4344,V,23,115389,Band,Mures,26,MS,264,Centru,7,rural,2850126708756
24.41422849163537,46.584620740134959,Tiptelnic,115496,4344,V,23,115389,Band,Mures,26,MS,185,Centru,7,rural,2850126712412
24.300194081165003,46.637619038026365,Valea Mare,115502,4344,V,23,115389,Band,Mures,26,MS,239,Centru,7,rural,2850126712850
24.336064879486106,46.571067978052426,Valea Rece,115511,4344,V,23,115389,Band,Mures,26,MS,307,Centru,7,rural,2850126712944
24.65415994121711,46.886986087770318,Batos,115539,4251,IV,22,115520,Batos,Mures,26,MS,1001,Centru,7,rural,2850135300526
24.65799394997482,46.826321548747821,Dedrad,115548,4248,V,23,115520,Batos,Mures,26,MS,1424,Centru,7,rural,2850135703982
24.655690187506217,46.854736450155784,Goreni,115557,4249,V,23,115520,Batos,Mures,26,MS,1040,Centru,7,rural,2850135705420
24.618822270349728,46.93142731973181,Uila,115566,4252,V,23,115520,Batos,Mures,26,MS,559,Centru,7,rural,2850135712452
24.372283724812402,46.270713619033799,Bagaciu,115584,3239,IV,22,115575,Bagaciu,Mures,26,MS,1057,Centru,7,rural,2850144300589
24.341189945188159,46.263403235692437,Delenii,115593,3238,V,23,115575,Bagaciu,Mures,26,MS,1244,Centru,7,rural,2850144704016
24.50018972587776,46.713089785817438,Bala,115619,4266,IV,22,115600,Bala,Mures,26,MS,853,Centru,7,rural,2850150300628
24.510573741965501,46.730814368307662,Ercea,115628,4266,V,23,115600,Bala,Mures,26,MS,242,Centru,7,rural,2850150704511
24.690921295018949,46.4089065310365,Balauseri,115646,3267,IV,22,115637,Balauseri,Mures,26,MS,1290,Centru,7,rural,2850158300653
24.684785773218042,46.392270285934963,Agristeu,115655,3268,V,23,115637,Balauseri,Mures,26,MS,733,Centru,7,rural,2850158700070
24.729117617441208,46.392338525621604,Chendu,115664,3269,V,23,115637,Balauseri,Mures,26,MS,1628,Centru,7,rural,2850158702585
24.758547973179631,46.400925461693305,Dumitreni,115673,3270,V,23,115637,Balauseri,Mures,26,MS,613,Centru,7,rural,2850158704460
24.669114175672057,46.36656334033502,Filitelnic,115682,3271,V,23,115637,Balauseri,Mures,26,MS,270,Centru,7,rural,2850158704745
24.650914551968839,46.334106702193601,Senereus,115691,3272,V,23,115637,Balauseri,Mures,26,MS,680,Centru,7,rural,2850158710863
24.798139963310355,46.733000312156136,Beica de Jos,115717,4272,IV,22,115708,Beica de Jos,Mures,26,MS,781,Centru,7,rural,2850213300918
24.823076066710534,46.738646661798896,Beica de Sus,115726,4272,V,23,115708,Beica de Jos,Mures,26,MS,297,Centru,7,rural,2850213700919
24.852385961374186,46.726064722992128,Cacuciu,115735,4272,V,23,115708,Beica de Jos,Mures,26,MS,161,Centru,7,rural,2850213702112
24.817137363965351,46.702746918288547,Nadasa,115744,4277,V,23,115708,Beica de Jos,Mures,26,MS,319,Centru,7,rural,2850213707860
24.87474008214318,46.728889386590936,Sanmihai de Padure,115753,4274,V,23,115708,Beica de Jos,Mures,26,MS,334,Centru,7,rural,2850213710627
24.866479041852052,46.714754262543565,Serbeni,115762,4272,V,23,115708,Beica de Jos,Mures,26,MS,451,Centru,7,rural,2850213711543
24.091968296457182,46.374262520940995,Bichis,115780,4365,IV,22,115771,Bichis,Mures,26,MS,292,Centru,7,rural,2850253301071
24.065233443665996,46.352424348697078,Gambut,115799,4365,V,23,115771,Bichis,Mures,26,MS,210,Centru,7,rural,2850253705078
24.076636708066783,46.383003624444321,Nandra,115806,4365,V,23,115771,Bichis,Mures,26,MS,146,Centru,7,rural,2850253707871
24.120321560647444,46.357269394594745,Ozd,115815,4365,V,23,115771,Bichis,Mures,26,MS,433,Centru,7,rural,2850253708415
24.119617149801979,46.456408153626988,Bogata,115833,4356,IV,22,115824,Bogata,Mures,26,MS,1567,Centru,7,rural,2850290301242
24.131495409124732,46.484924054761592,Ranta,115842,4357,V,23,115824,Bogata,Mures,26,MS,295,Centru,7,rural,2850290709709
24.639036631778179,46.763634202045445,Breaza,115860,4258,IV,22,115851,Breaza,Mures,26,MS,1148,Centru,7,rural,2850379301627
24.589539810929654,46.75385030229041,Filpisu Mare,115879,4259,V,23,115851,Breaza,Mures,26,MS,857,Centru,7,rural,2850379704748
24.600439406815298,46.78304883535835,Filpisu Mic,115888,4258,V,23,115851,Breaza,Mures,26,MS,479,Centru,7,rural,2850379704749
24.759910515004098,46.855936313432757,Brancovenesti,115904,4239,IV,22,115897,Brancovenesti,Mures,26,MS,1735,Centru,7,rural,2850375301617
24.820178204811864,46.855146378429176,Idicel,115913,4243,V,23,115897,Brancovenesti,Mures,26,MS,505,Centru,7,rural,2850375706069
24.859105414811879,46.854597729732831,Idicel-Padure,115922,4244,V,23,115897,Brancovenesti,Mures,26,MS,703,Centru,7,rural,2850375706070
24.713617046651535,46.885025799671432,Sacalu de Padure,115931,4247,V,23,115897,Brancovenesti,Mures,26,MS,492,Centru,7,rural,2850375710385
24.797925969973203,46.892743774134061,Valenii de Mures,115940,4236,V,23,115897,Brancovenesti,Mures,26,MS,1341,Centru,7,rural,2850375713149
24.513870708284024,46.642931529396556,Ceuasu de Campie,115968,4320,IV,22,115959,Ceuasu de Campie,Mures,26,MS,1423,Centru,7,rural,2850574302560
24.462260176948853,46.687356911933229,Bozed,115977,4321,V,23,115959,Ceuasu de Campie,Mures,26,MS,261,Centru,7,rural,2850574701479
24.487337853079797,46.651211124865611,Campenita,115986,4320,V,23,115959,Ceuasu de Campie,Mures,26,MS,820,Centru,7,rural,2850574702340
24.43258037033252,46.639608008278891,Culpiu,115995,4321,V,23,115959,Ceuasu de Campie,Mures,26,MS,410,Centru,7,rural,2850574703700
24.478188254408458,46.63106023348778,Herghelia,116000,4320,V,23,115959,Ceuasu de Campie,Mures,26,MS,322,Centru,7,rural,2850574705802
24.546803921333165,46.636839641748487,Porumbeni,116019,4320,V,23,115959,Ceuasu de Campie,Mures,26,MS,454,Centru,7,rural,2850574709405
24.446318738477284,46.664499445303058,Sabed,116028,4321,V,23,115959,Ceuasu de Campie,Mures,26,MS,712,Centru,7,rural,2850574710381
24.524968325652257,46.613717490788979,Voiniceni,116037,4319,V,23,115959,Ceuasu de Campie,Mures,26,MS,924,Centru,7,rural,2850574713536
24.02787998495986,46.464351384375782,Chetani,116055,4366,IV,22,116046,Chetani,Mures,26,MS,1309,Centru,7,rural,2850578302609
23.982636249053058,46.495498506981995,Coasta Grindului,116064,4368,V,23,116046,Chetani,Mures,26,MS,25,Centru,7,rural,2850578702992
24.023043855462213,46.512847018172749,Cordos,116073,4368,V,23,116046,Chetani,Mures,26,MS,57,Centru,7,rural,2850578703228
23.969578986242553,46.517058941207083,Giurgis,116082,4368,V,23,116046,Chetani,Mures,26,MS,22,Centru,7,rural,2850578705309
23.997929407011391,46.500671994440701,Grindeni,116091,4368,V,23,116046,Chetani,Mures,26,MS,570,Centru,7,rural,2850578705519
23.983738529066763,46.466983593285072,Hadareni,116108,4367,V,23,116046,Chetani,Mures,26,MS,870,Centru,7,rural,2850578705719
24.000536293947036,46.532044534687302,Lint,116117,4368,V,23,116046,Chetani,Mures,26,MS,4,Centru,7,rural,2850578706650
24.881542789419981,46.687409652208984,Chiheru de Jos,116135,4278,IV,22,116126,Chiheru de Jos,Mures,26,MS,564,Centru,7,rural,2850584302628
24.903597542691529,46.681347970460301,Chiheru de Sus,116144,4278,V,23,116126,Chiheru de Jos,Mures,26,MS,399,Centru,7,rural,2850584702629
24.896089507139667,46.710852949491688,Urisiu de Jos,116153,4276,V,23,116126,Chiheru de Jos,Mures,26,MS,413,Centru,7,rural,2850584712559
24.911087178556571,46.706222863240534,Urisiu de Sus,116162,4276,V,23,116126,Chiheru de Jos,Mures,26,MS,599,Centru,7,rural,2850584712560
24.602019176153316,46.407471881136971,Coroisanmartin,116180,3261,IV,22,116171,Coroisanmartin,Mures,26,MS,441,Centru,7,rural,2850721303305
24.633891149448612,46.409098677967997,Coroi,116199,3262,V,23,116171,Coroisanmartin,Mures,26,MS,175,Centru,7,rural,2850721703298
24.567713522109337,46.404585339266674,Odrihei,116206,3266,V,23,116171,Coroisanmartin,Mures,26,MS,514,Centru,7,rural,2850721708203
24.587032028760483,46.39387668943457,Soimus,116215,3263,V,23,116171,Coroisanmartin,Mures,26,MS,487,Centru,7,rural,2850721711648
24.522531911780089,46.80707179441584,Cozma,116233,4262,IV,22,116224,Cozma,Mures,26,MS,476,Centru,7,rural,2850757303478
24.488031651256367,46.792986932692905,Fanatele Socolului,116242,4263,V,23,116224,Cozma,Mures,26,MS,40,Centru,7,rural,2850757704620
24.515752742857714,46.791415309533285,Socolu de Campie,116251,4263,V,23,116224,Cozma,Mures,26,MS,214,Centru,7,rural,2850757711097
24.484540037016053,46.822716176759606,Valea Sasului,116260,4263,V,23,116224,Cozma,Mures,26,MS,19,Centru,7,rural,2850757712956
24.48055452689054,46.804991777118296,Valea Ungurului,116279,4263,V,23,116224,Cozma,Mures,26,MS,10,Centru,7,rural,2850757713014
24.575241497086161,46.477299935266963,Craciunesti,116297,4332,IV,22,116288,Craciunesti,Mures,26,MS,2464,Centru,7,rural,2850767303514
24.584807329424105,46.509205696126223,Budiu Mic,116304,4310,V,23,116288,Craciunesti,Mures,26,MS,439,Centru,7,rural,2850767701814
24.551038281090957,46.460219583388351,Cinta,116313,4314,V,23,116288,Craciunesti,Mures,26,MS,386,Centru,7,rural,2850767702756
24.586742049982885,46.456601466967783,Cornesti,116322,4332,V,23,116288,Craciunesti,Mures,26,MS,974,Centru,7,rural,2850767703260
24.547894327910623,46.45462845355366,Tirimioara,116331,4314,V,23,116288,Craciunesti,Mures,26,MS,167,Centru,7,rural,2850767712064
24.424986338950021,46.757707867690144,Craiesti,116359,4264,IV,22,116340,Craiesti,Mures,26,MS,774,Centru,7,rural,2850768303520
24.470418482336402,46.747929676650749,Lefaia,116368,4263,V,23,116340,Craiesti,Mures,26,MS,107,Centru,7,rural,2850768706551
24.452499300917175,46.742699356896289,Milasel,116377,4263,V,23,116340,Craiesti,Mures,26,MS,256,Centru,7,rural,2850768707505
24.443627865264631,46.728386909345041,Nima Milaselului,116386,4263,V,23,116340,Craiesti,Mures,26,MS,14,Centru,7,rural,2850768708053
24.26605841496875,46.402476491399987,Cucerdea,116402,4354,IV,22,116395,Cucerdea,Mures,26,MS,1079,Centru,7,rural,2850800303652
24.226939580609756,46.393689182092437,Bord,116411,4354,V,23,116395,Cucerdea,Mures,26,MS,218,Centru,7,rural,2850800701361
24.247196314171202,46.415887728924226,Seulia de Mures,116420,4354,V,23,116395,Cucerdea,Mures,26,MS,653,Centru,7,rural,2850800711562
24.156225684250156,46.464268571581449,Cuci,116448,4357,IV,22,116439,Cuci,Mures,26,MS,917,Centru,7,rural,2850801303656
24.175120821170221,46.475491672817796,Dataseni,116457,4357,V,23,116439,Cuci,Mures,26,MS,416,Centru,7,rural,2850801703862
24.195882737500558,46.488749275332715,Dupa Deal,116466,4357,V,23,116439,Cuci,Mures,26,MS,0,Centru,7,rural,2850801704480
24.141871382056905,46.456216725876892,Orosia,116475,4356,V,23,116439,Cuci,Mures,26,MS,199,Centru,7,rural,2850801708354
24.146955230706659,46.410624202055878,Petrilaca,116484,4356,V,23,116439,Cuci,Mures,26,MS,675,Centru,7,rural,2850801708800
24.696824058962775,46.223197260667831,Danes,116509,3083,IV,22,116493,Danes,Mures,26,MS,2294,Centru,7,rural,2850826303803
24.693894491065329,46.143633181338181,Cris,116518,3084,V,23,116493,Danes,Mures,26,MS,687,Centru,7,rural,2850826703593
24.694266189041656,46.242609160253643,Seleus,116527,3085,V,23,116493,Danes,Mures,26,MS,1569,Centru,7,rural,2850826710853
24.724345025319227,46.153672043197027,Stejarenii,116536,3084,V,23,116493,Danes,Mures,26,MS,335,Centru,7,rural,2850826711270
24.874131336393585,46.946680068805442,Deda,116554,4229,IV,22,116545,Deda,Mures,26,MS,1913,Centru,7,rural,2850853303979
24.906082843030003,46.960934304799139,Bistra Muresului,116563,4229,V,23,116545,Deda,Mures,26,MS,1079,Centru,7,rural,2850853701106
24.885465396969558,46.942103536545694,Filea,116572,4229,V,23,116545,Deda,Mures,26,MS,840,Centru,7,rural,2850853704731
24.844077806351219,46.935937230883724,Pietris,116581,4229,V,23,116545,Deda,Mures,26,MS,551,Centru,7,rural,2850853708868
24.924110769518158,46.661685854678737,Eremitu,116607,4341,IV,22,116590,Eremitu,Mures,26,MS,1769,Centru,7,rural,2850977304513
24.879967896525315,46.630723727377401,Calugareni,116616,4342,V,23,116590,Eremitu,Mures,26,MS,581,Centru,7,rural,2850977702197
25.013985619200373,46.670428596053142,Campu Cetatii,116625,4341,V,23,116590,Eremitu,Mures,26,MS,470,Centru,7,rural,2850977702347
24.860714411226468,46.626122251486322,Damieni,116634,4343,V,23,116590,Eremitu,Mures,26,MS,297,Centru,7,rural,2850977703833
24.902563506505189,46.652789081672289,Matrici,116643,4341,V,23,116590,Eremitu,Mures,26,MS,795,Centru,7,rural,2850977707275
24.6431089384152,46.605857991093039,Ernei,116661,4296,IV,22,116652,Ernei,Mures,26,MS,1946,Centru,7,rural,2850978304517
24.736961358051197,46.606254957769295,Caluseri,116670,4298,V,23,116652,Ernei,Mures,26,MS,665,Centru,7,rural,2850978702203
24.637967435059281,46.640959705718096,Dumbravioara,116689,4293,V,23,116652,Ernei,Mures,26,MS,1692,Centru,7,rural,2850978704436
24.693376614156637,46.611968477162797,Icland,116698,4296,V,23,116652,Ernei,Mures,26,MS,318,Centru,7,rural,2850978706054
24.697295372715971,46.599876998058676,Sacareni,116705,4297,V,23,116652,Ernei,Mures,26,MS,206,Centru,7,rural,2850978710396
24.665062993191153,46.640717883783118,Sangeru de Padure,116714,4293,V,23,116652,Ernei,Mures,26,MS,353,Centru,7,rural,2850978710607
24.517500630701328,46.762748279423413,Faragau,116732,4263,IV,22,116723,Faragau,Mures,26,MS,652,Centru,7,rural,2850988304584
24.475404110664378,46.769798075447198,Fanate,116741,4263,V,23,116723,Faragau,Mures,26,MS,22,Centru,7,rural,2850988704612
24.479282293649948,46.773675524563593,Hodaia,116750,4263,V,23,116723,Faragau,Mures,26,MS,0,Centru,7,rural,2850988705844
24.581203613146005,46.726297348957502,Onuca,116769,4265,V,23,116723,Faragau,Mures,26,MS,102,Centru,7,rural,2850988708297
24.561466624263197,46.735167268572425,Poarta,116778,4265,V,23,116723,Faragau,Mures,26,MS,264,Centru,7,rural,2850988709066
24.552013533238615,46.780252477137076,Tonciu,116787,4261,V,23,116723,Faragau,Mures,26,MS,734,Centru,7,rural,2850988712143
24.766536177662708,46.421817572815158,Fantanele,116803,3273,IV,22,116796,Fantanele,Mures,26,MS,2518,Centru,7,rural,2850998304656
24.78606022207023,46.39667895592229,Bordosiu,116812,3276,V,23,116796,Fantanele,Mures,26,MS,337,Centru,7,rural,2850998701372
24.733202250261122,46.413502674906482,Calimanesti,116821,3274,V,23,116796,Fantanele,Mures,26,MS,925,Centru,7,rural,2850998702157
24.806154827294261,46.377926549092329,Cibu,116830,3276,V,23,116796,Fantanele,Mures,26,MS,205,Centru,7,rural,2850998702727
24.828905816619066,46.382362832707024,Roua,116849,3278,V,23,116796,Fantanele,Mures,26,MS,434,Centru,7,rural,2850998710127
24.809816311213375,46.431894291774832,Viforoasa,116858,3284,V,23,116796,Fantanele,Mures,26,MS,910,Centru,7,rural,2850998713368
24.75953719388442,46.513582445017065,Galesti,116876,4335,IV,22,116867,Galesti,Mures,26,MS,1294,Centru,7,rural,2851073305032
24.803244347775191,46.493573342788352,Adrianu Mare,116885,4333,V,23,116867,Galesti,Mures,26,MS,145,Centru,7,rural,2851073700040
24.7905138768309,46.500821133022455,Adrianu Mic,116894,4333,V,23,116867,Galesti,Mures,26,MS,65,Centru,7,rural,2851073700041
24.783374383077295,46.467605519834301,Bedeni,116901,4334,V,23,116867,Galesti,Mures,26,MS,204,Centru,7,rural,2851073700913
24.714853596750697,46.51967075601231,Maiad,116910,4335,V,23,116867,Galesti,Mures,26,MS,400,Centru,7,rural,2851073706951
24.769773580344104,46.484423222547129,Troita,116929,4334,V,23,116867,Galesti,Mures,26,MS,855,Centru,7,rural,2851073712250
24.360487591523423,46.334519429673584,Ganesti,116947,3241,IV,22,116938,Ganesti,Mures,26,MS,3585,Centru,7,rural,2851076305046
24.311767751815779,46.338961523483768,Custelnic,116956,3240,V,11,114925,Municipiul Tarnaveni,Mures,26,MS,536,Centru,7,urban,2821759503761
24.351187843551056,46.350889227934914,Paucisoara,116965,3241,V,23,116938,Ganesti,Mures,26,MS,227,Centru,7,rural,2851076708599
24.326339758178726,46.370137416129047,Sub Padure,116974,3240,V,23,116938,Ganesti,Mures,26,MS,88,Centru,7,rural,2851076711393
24.5112199407628,46.463278275896378,Gheorghe Doja,116992,4314,IV,22,116983,Gheorghe Doja,Mures,26,MS,508,Centru,7,rural,2851104305173
24.530214434693949,46.463708490202251,Ilieni,117006,4314,V,23,116983,Gheorghe Doja,Mures,26,MS,418,Centru,7,rural,2851104706127
24.489097043551986,46.470218442810172,Leordeni,117015,4314,V,23,116983,Gheorghe Doja,Mures,26,MS,357,Centru,7,rural,2851104706578
24.512254059181164,46.456813068679793,Satu Nou,117024,4316,V,23,116983,Gheorghe Doja,Mures,26,MS,721,Centru,7,rural,2851104710360
24.491622404983858,46.449273150654548,Tirimia,117033,4315,V,23,116983,Gheorghe Doja,Mures,26,MS,801,Centru,7,rural,2851104712063
24.926165688440349,46.504812532851567,Ghindari,117051,3288,IV,22,117042,Ghindari,Mures,26,MS,1525,Centru,7,rural,2851120305229
24.916361354586609,46.525104955769145,Abud,117060,3288,V,23,117042,Ghindari,Mures,26,MS,226,Centru,7,rural,2851120700013
24.984270112756295,46.464065639187588,Ceie,117079,3288,V,23,117042,Ghindari,Mures,26,MS,57,Centru,7,rural,2851120702450
24.962150990576042,46.533281183804498,Chibed,117088,3289,V,22,120478,Chibed,Mures,26,MS,1854,Centru,7,rural,2850581302615
24.995259174699079,46.475916913576064,Solocma,117097,3290,V,23,117042,Ghindari,Mures,26,MS,439,Centru,7,rural,2851120711121
24.898554504100787,46.475719236419728,Trei Sate,117104,3291,V,23,117042,Ghindari,Mures,26,MS,1189,Centru,7,rural,2851120712214
24.608540376348856,46.65294708497715,Glodeni,117122,4294,IV,22,117113,Glodeni,Mures,26,MS,2261,Centru,7,rural,2851149305350
24.549776925134392,46.699213390842253,Merisor,117131,4295,V,23,117113,Glodeni,Mures,26,MS,296,Centru,7,rural,2851149707382
24.528194844286066,46.684559978064726,Moisa,117140,4295,V,23,117113,Glodeni,Mures,26,MS,389,Centru,7,rural,2851149707669
24.556515221676374,46.661854839343071,Pacureni,117159,4295,V,23,117113,Glodeni,Mures,26,MS,302,Centru,7,rural,2851149708484
24.561962610777542,46.680032757923641,Paingeni,117168,4295,V,23,117113,Glodeni,Mures,26,MS,507,Centru,7,rural,2851149708537
24.651229568813726,46.675308345150974,Gornesti,117186,4288,IV,22,117177,Gornesti,Mures,26,MS,1927,Centru,7,rural,2851167305431
24.729213876233182,46.662678857452136,Iara de Mures,117195,4288,V,23,117177,Gornesti,Mures,26,MS,362,Centru,7,rural,2851167706025
24.747588159235459,46.645850253247808,Ilioara,117202,4288,V,23,117177,Gornesti,Mures,26,MS,147,Centru,7,rural,2851167706133
24.780166208634643,46.656966104807005,Mura Mare,117211,4288,V,23,117177,Gornesti,Mures,26,MS,80,Centru,7,rural,2851167707824
24.765237847009477,46.649090756715303,Mura Mica,117220,4288,V,23,117177,Gornesti,Mures,26,MS,58,Centru,7,rural,2851167707825
24.716247179231122,46.640531626683618,Padureni,117239,4288,V,23,117177,Gornesti,Mures,26,MS,466,Centru,7,rural,2851167708516
24.664355213326282,46.694179109763603,Peris,117248,4271,V,23,117177,Gornesti,Mures,26,MS,1748,Centru,7,rural,2851167708716
24.753372613279225,46.689914575636983,Petrilaca de Mures,117257,4288,V,23,117177,Gornesti,Mures,26,MS,679,Centru,7,rural,2851167708801
24.796921846270369,46.67366927378923,Teleac,117266,4288,V,23,117177,Gornesti,Mures,26,MS,426,Centru,7,rural,2851167711979
24.311713345673365,46.608805696403152,Grebenisu de Campie,117284,4345,IV,22,117275,Grebenisu de Campie,Mures,26,MS,873,Centru,7,rural,2851191305495
24.22974118421908,46.60824979627327,Leorinta,117293,4345,V,23,117275,Grebenisu de Campie,Mures,26,MS,168,Centru,7,rural,2851191706582
24.286661334330077,46.622581608415388,Valea Sanpetrului,117300,4345,V,23,117275,Grebenisu de Campie,Mures,26,MS,414,Centru,7,rural,2851191712964
24.857195378764935,46.773045584182888,Gurghiu,117328,4281,IV,22,117319,Gurghiu,Mures,26,MS,2062,Centru,7,rural,2851226305664
24.833242439001079,46.78209157943872,Adrian,117337,4281,V,23,117319,Gurghiu,Mures,26,MS,322,Centru,7,rural,2851226700038
24.884933078682092,46.784584053131226,Casva,117346,4283,V,23,117319,Gurghiu,Mures,26,MS,642,Centru,7,rural,2851226702085
24.896905576514147,46.735803316331939,Comori,117355,4281,V,23,117319,Gurghiu,Mures,26,MS,310,Centru,7,rural,2851226703146
24.907484197308101,46.825307380767853,Fundoaia,117364,4282,V,23,117319,Gurghiu,Mures,26,MS,175,Centru,7,rural,2851226704935
24.935746280793623,46.835223368224966,Glajarie,117373,4283,V,23,117319,Gurghiu,Mures,26,MS,1873,Centru,7,rural,2851226705321
24.918431488785814,46.823867120188524,Larga,117382,4282,V,23,117319,Gurghiu,Mures,26,MS,119,Centru,7,rural,2851226706459
24.913712176389843,46.749978875577256,Orsova,117391,4281,V,23,117319,Gurghiu,Mures,26,MS,811,Centru,7,rural,2851226708355
24.940245601342959,46.737660419679472,Orsova-Padure,117408,4281,V,23,117319,Gurghiu,Mures,26,MS,169,Centru,7,rural,2851226708357
24.883581081871949,46.804277474653603,Pauloaia,117417,4282,V,23,117319,Gurghiu,Mures,26,MS,280,Centru,7,rural,2851226708615
24.92704217427956,46.77582816184534,Hodac,117435,4285,IV,22,117426,Hodac,Mures,26,MS,2426,Centru,7,rural,2851259305843
24.998585370508152,46.785874127952539,Arsita,117444,4285,V,23,117426,Hodac,Mures,26,MS,99,Centru,7,rural,2851259700337
24.95608715991461,46.8106618948446,Bicasu,117453,4285,V,23,117426,Hodac,Mures,26,MS,142,Centru,7,rural,2851259701057
24.965150924432844,46.776790702160831,Dubistea de Padure,117462,4285,V,23,117426,Hodac,Mures,26,MS,445,Centru,7,rural,2851259704359
24.927750175975767,46.804772491805878,Mirigioaia,117471,4284,V,23,117426,Hodac,Mures,26,MS,45,Centru,7,rural,2851259707564
24.965503773199664,46.79860894940213,Toaca,117480,4286,V,23,117426,Hodac,Mures,26,MS,1696,Centru,7,rural,2851259712090
24.984072913272804,46.783848670366325,Uricea,117499,4285,V,23,117426,Hodac,Mures,26,MS,72,Centru,7,rural,2851259712557
24.825378296024802,46.636979095058123,Hodosa,117514,4279,IV,22,117505,Hodosa,Mures,26,MS,227,Centru,7,rural,2851261305864
24.798986104969543,46.634947534596819,Ihod,117523,4279,V,23,117505,Hodosa,Mures,26,MS,141,Centru,7,rural,2851261706112
24.785637382695494,46.624756152474788,Isla,117532,4279,V,23,117505,Hodosa,Mures,26,MS,375,Centru,7,rural,2851261706216
24.82884039532177,46.66180850277054,Sambrias,117541,4279,V,23,117505,Hodosa,Mures,26,MS,861,Centru,7,rural,2851261710579
24.934527636322827,46.769480627875062,Ibanesti,117569,4284,IV,22,117550,Ibanesti,Mures,26,MS,2392,Centru,7,rural,2851299306045
25.030651038221819,46.763943869486013,Blidireasa,117578,4290,V,23,117550,Ibanesti,Mures,26,MS,223,Centru,7,rural,2851299701166
25.051709766024231,46.755388955865925,Bradetelu,117587,4287,V,23,117550,Ibanesti,Mures,26,MS,261,Centru,7,rural,2851299701565
25.032467251259465,46.757690288321534,Dulcea,117596,4287,V,23,117550,Ibanesti,Mures,26,MS,336,Centru,7,rural,2851299704379
24.986764057749259,46.758926727462551,Ibanesti-Padure,117603,4287,V,23,117550,Ibanesti,Mures,26,MS,492,Centru,7,rural,2851299706048
25.215018410750407,46.76794894451897,Lapusna,117612,4287,V,23,117550,Ibanesti,Mures,26,MS,71,Centru,7,rural,2851299706513
25.004242171652297,46.763875892209995,Parau Mare,117621,4290,V,23,117550,Ibanesti,Mures,26,MS,158,Centru,7,rural,2851299708654
24.994723116362362,46.767537721730839,Tireu,117630,4290,V,23,117550,Ibanesti,Mures,26,MS,442,Centru,7,rural,2851299712061
25.012582888106337,46.765593754235091,Tisieu,117649,4287,V,23,117550,Ibanesti,Mures,26,MS,297,Centru,7,rural,2851299712076
25.049121706156374,46.759789744828559,Zimti,117658,4287,V,23,117550,Ibanesti,Mures,26,MS,56,Centru,7,rural,2851299713715
24.278048291282989,46.525296452307153,Iclanzel,117676,4352,IV,22,117667,Iclanzel,Mures,26,MS,485,Centru,7,rural,2851301306056
24.314141683763307,46.542262844642863,Capusu de Campie,117685,4353,V,23,117667,Iclanzel,Mures,26,MS,708,Centru,7,rural,2851301702241
24.3147570454319,46.568090585289148,Chisalita,117694,4353,V,23,117667,Iclanzel,Mures,26,MS,25,Centru,7,rural,2851301702690
24.246296201448693,46.517408194637703,Dupa Deal,117701,4351,V,23,117667,Iclanzel,Mures,26,MS,13,Centru,7,rural,2851301704479
24.215372306786929,46.532389863702498,Fanate,117710,4352,V,23,117667,Iclanzel,Mures,26,MS,9,Centru,7,rural,2851301704616
24.267323760087745,46.579495290251593,Fanatele Capusului,117729,4353,V,23,117667,Iclanzel,Mures,26,MS,83,Centru,7,rural,2851301704617
24.268100749212358,46.554602963937725,Ghidasteu,117738,4352,V,23,117667,Iclanzel,Mures,26,MS,28,Centru,7,rural,2851301705205
24.265365400432049,46.528104417603473,Iclandu Mare,117747,4351,V,23,117667,Iclanzel,Mures,26,MS,671,Centru,7,rural,2851301706055
24.256876679994676,46.503260178241831,Madaraseni,117756,4351,V,23,117667,Iclanzel,Mures,26,MS,115,Centru,7,rural,2851301707078
24.306668814006297,46.517626472829647,Tablaseni,117765,4351,V,23,117667,Iclanzel,Mures,26,MS,25,Centru,7,rural,2851301711794
24.253911442962437,46.534392207862709,Valea Iclandului,117774,4352,V,23,117667,Iclanzel,Mures,26,MS,19,Centru,7,rural,2851301712778
24.761144705942318,46.816900623309486,Ideciu de Jos,117792,4241,IV,22,117783,Ideciu de Jos,Mures,26,MS,979,Centru,7,rural,2851305306067
24.80866161420931,46.836971835417934,Deleni,117809,4242,V,23,117783,Ideciu de Jos,Mures,26,MS,379,Centru,7,rural,2851305704005
24.772781280151822,46.842313912832765,Ideciu de Sus,117818,4242,V,23,117783,Ideciu de Jos,Mures,26,MS,734,Centru,7,rural,2851305706068
24.237098954146632,46.450617282510805,Iernut,117836,4351,III,17,117827,Oras Iernut,Mures,26,MS,5954,Centru,7,urban,2831964206086
24.277858469601796,46.448757344792497,Cipau,117845,4351,V,19,117827,Oras Iernut,Mures,26,MS,1015,Centru,7,urban,2831964602842
24.192204209950283,46.389184650728971,Deag,117854,4351,V,19,117827,Oras Iernut,Mures,26,MS,496,Centru,7,urban,2831964603900
24.228567676559319,46.474045552231907,Lechinta,117863,4351,V,19,117827,Oras Iernut,Mures,26,MS,742,Centru,7,urban,2831964606549
24.292662385304993,46.463714492014248,Oarba de Mures,117872,4351,V,19,117827,Oras Iernut,Mures,26,MS,198,Centru,7,urban,2831964608119
24.264719109806489,46.481103326894058,Porumbac,117881,4351,V,19,117827,Oras Iernut,Mures,26,MS,53,Centru,7,urban,2831964609401
24.24043877818719,46.513068538251005,Racamet,117890,4351,V,19,117827,Oras Iernut,Mures,26,MS,33,Centru,7,urban,2831964609655
24.171406709483549,46.407554965267046,Salcud,117907,4351,V,19,117827,Oras Iernut,Mures,26,MS,892,Centru,7,urban,2831964610453
24.265934845112717,46.453549741723144,Sfantu Gheorghe,117916,4351,V,19,117827,Oras Iernut,Mures,26,MS,336,Centru,7,urban,2831964610880
24.636076391997985,46.550346830195515,Livezeni,117934,4310,IV,22,117925,Livezeni,Mures,26,MS,1090,Centru,7,rural,2851430306700
24.671242885418494,46.532124244862551,Bozeni,117943,4310,V,23,120487,Corunca,Mures,26,MS,126,Centru,7,rural,2850723701480
24.620633768094095,46.522259583605489,Corunca,117952,4322,V,22,120487,Corunca,Mures,26,MS,1501,Centru,7,rural,2850723303316
24.676347127921943,46.542045352050948,Ivanesti,117961,4310,V,23,117925,Livezeni,Mures,26,MS,296,Centru,7,rural,2851430706246
24.670084264022893,46.555623229970884,Poienita,117970,4310,V,23,117925,Livezeni,Mures,26,MS,268,Centru,7,rural,2851430709311
24.698167716987182,46.545937809287032,Sanisor,117989,4310,V,23,117925,Livezeni,Mures,26,MS,196,Centru,7,rural,2851430710611
24.578701427987429,46.848362781965633,Lunca,118003,4256,IV,22,117998,Lunca,Mures,26,MS,634,Centru,7,rural,2851457306816
24.529996582609748,46.836352274820761,Baita,118012,4257,V,23,117998,Lunca,Mures,26,MS,977,Centru,7,rural,2851457700620
24.567969038479692,46.814457870133566,Frunzeni,118021,4255,V,23,117998,Lunca,Mures,26,MS,532,Centru,7,rural,2851457704902
24.573775584317804,46.879456424132393,Logig,118030,4253,V,23,117998,Lunca,Mures,26,MS,537,Centru,7,rural,2851457706720
24.60358043808143,46.80134204021973,Santu,118049,4254,V,23,117998,Lunca,Mures,26,MS,460,Centru,7,rural,2851457710672
25.113946298217833,46.955923096623295,Lunca Bradului,118067,4227,IV,22,118058,Lunca Bradului,Mures,26,MS,1768,Centru,7,rural,2851459306826
25.146852811660914,46.972295875225399,Neagra,118076,4227,V,23,118058,Lunca Bradului,Mures,26,MS,528,Centru,7,rural,2851459707913
25.07545427784844,46.951456327639136,Salard,118085,4227,V,23,118058,Lunca Bradului,Mures,26,MS,135,Centru,7,rural,2851459710420
24.907509638837283,46.563851608509623,Magherani,118101,4340,IV,22,118094,Magherani,Mures,26,MS,769,Centru,7,rural,2851510307088
24.868207141901497,46.557334883757328,Bereni,118110,4333,V,22,120511,Bereni,Mures,26,MS,205,Centru,7,rural,2850229300995
24.872620365529052,46.57221311662375,Bara,118129,4340,V,23,120511,Bereni,Mures,26,MS,158,Centru,7,rural,2850229700818
24.887908561161197,46.599177107263714,Candu,118138,4340,V,23,120511,Bereni,Mures,26,MS,157,Centru,7,rural,2850229702372
24.857110619898695,46.545966439959351,Drojdii,118147,4333,V,23,120511,Bereni,Mures,26,MS,146,Centru,7,rural,2850229704354
24.871582380345007,46.536418872373552,Eremieni,118156,4333,V,23,120511,Bereni,Mures,26,MS,265,Centru,7,rural,2850229704512
24.848184167050739,46.581181149015805,Maia,118165,4340,V,23,120511,Bereni,Mures,26,MS,205,Centru,7,rural,2850229706950
24.865239465892181,46.597128299047078,Marculeni,118174,4340,V,23,120511,Bereni,Mures,26,MS,316,Centru,7,rural,2850229707216
24.923192931948748,46.598873179535758,Silea Nirajului,118183,4340,V,23,118094,Magherani,Mures,26,MS,604,Centru,7,rural,2851510711579
24.887584201684717,46.547457931810932,Torba,118192,4333,V,23,118094,Magherani,Mures,26,MS,208,Centru,7,rural,2851510712177
24.41240507336618,46.368046068094309,Mica,118218,3253,IV,22,118209,Mica,Mures,26,MS,579,Centru,7,rural,2851570307414
24.382948008693859,46.357768272864774,Abus,118227,3242,V,23,118209,Mica,Mures,26,MS,358,Centru,7,rural,2851570700014
24.43502000109244,46.378462715294354,Capalna de Sus,118236,3253,V,23,118209,Mica,Mures,26,MS,157,Centru,7,rural,2851570702224
24.442932366675102,46.343084104039924,Ceuas,118245,3249,V,23,118209,Mica,Mures,26,MS,904,Centru,7,rural,2851570702559
24.402064750896088,46.347107520671848,Deaj,118254,3243,V,23,118209,Mica,Mures,26,MS,1359,Centru,7,rural,2851570703903
24.415352867661113,46.304757658011532,Haranglab,118263,3244,V,23,118209,Mica,Mures,26,MS,866,Centru,7,rural,2851570705741
24.385297284817273,46.391749457194756,Somostelnic,118272,3245,V,23,118209,Mica,Mures,26,MS,347,Centru,7,rural,2851570711662
24.808462203121465,46.5364299657112,Miercurea Nirajului,118290,4333,IV,17,118281,Oras Miercurea Nirajului,Mures,26,MS,3902,Centru,7,urban,2831977207441
24.719424343040867,46.573929755418249,Beu,118307,4337,V,18,118281,Oras Miercurea Nirajului,Mures,26,MS,136,Centru,7,urban,2831977601041
24.787592142936933,46.521744813673969,Dumitrestii,118316,4333,V,18,118281,Oras Miercurea Nirajului,Mures,26,MS,370,Centru,7,urban,2831977604464
24.734695572364235,46.543220634306365,Laureni,118325,4336,V,18,118281,Oras Miercurea Nirajului,Mures,26,MS,271,Centru,7,urban,2831977606531
24.743310925389022,46.569144796250377,Mosuni,118334,4337,V,18,118281,Oras Miercurea Nirajului,Mures,26,MS,316,Centru,7,urban,2831977607738
24.752856015847588,46.544259884491808,Sardu Nirajului,118343,4336,V,18,118281,Oras Miercurea Nirajului,Mures,26,MS,403,Centru,7,urban,2831977611493
24.769782392022119,46.531923051017685,Tampa,118352,4333,V,18,118281,Oras Miercurea Nirajului,Mures,26,MS,406,Centru,7,urban,2831977611893
24.723082634321205,46.560073088613841,Veta,118361,4337,V,18,118281,Oras Miercurea Nirajului,Mures,26,MS,61,Centru,7,urban,2831977613329
24.158664491017795,46.677655720583537,Mihesu de Campie,118389,4382,IV,22,118370,Mihesu de Campie,Mures,26,MS,1407,Centru,7,rural,2851595307495
24.173422154335295,46.655340292533197,Bujor,118398,4382,V,23,118370,Mihesu de Campie,Mures,26,MS,77,Centru,7,rural,2851595701849
24.105610626491064,46.659592894528814,Cirhagau,118405,4382,V,23,118370,Mihesu de Campie,Mures,26,MS,15,Centru,7,rural,2851595702862
24.234343009466478,46.658092313320942,Groapa Radaii,118414,4384,V,23,118370,Mihesu de Campie,Mures,26,MS,58,Centru,7,rural,2851595705527
24.232407398299006,46.670271322423119,Mogoaia,118423,4384,V,23,118370,Mihesu de Campie,Mures,26,MS,31,Centru,7,rural,2851595707642
24.19386016107272,46.692429959590207,Razoare,118432,4384,V,23,118370,Mihesu de Campie,Mures,26,MS,710,Centru,7,rural,2851595709848
24.215053909981702,46.662677130359775,Saulita,118441,4385,V,23,118370,Mihesu de Campie,Mures,26,MS,126,Centru,7,rural,2851595711506
24.231614726297451,46.685706057470462,Stefanca,118450,4384,V,23,118370,Mihesu de Campie,Mures,26,MS,55,Centru,7,rural,2851595711692
24.729951055765429,46.32066069333117,Nades,118478,3077,IV,22,118469,Nades,Mures,26,MS,1119,Centru,7,rural,2851779307862
24.689435618766474,46.321961839666102,Magherus,118487,3078,V,23,118469,Nades,Mures,26,MS,155,Centru,7,rural,2851779707091
24.776854137774119,46.325791610656168,Pipea,118496,3077,V,23,118469,Nades,Mures,26,MS,105,Centru,7,rural,2851779708905
24.717877622165478,46.355157936119717,Tigmandru,118502,3079,V,23,118469,Nades,Mures,26,MS,859,Centru,7,rural,2851779712405
24.830719752553211,46.477231908464262,Neaua,118520,3282,IV,22,118511,Neaua,Mures,26,MS,405,Centru,7,rural,2851791307919
24.866191658739574,46.496111357796892,Ghinesti,118539,3287,V,23,118511,Neaua,Mures,26,MS,434,Centru,7,rural,2851791705235
24.838349647543431,46.508987508611256,Rigmani,118548,3283,V,23,118511,Neaua,Mures,26,MS,300,Centru,7,rural,2851791709984
24.834585024870698,46.495494320861745,Sansimion,118557,3283,V,23,118511,Neaua,Mures,26,MS,104,Centru,7,rural,2851791710650
24.819393545386013,46.455898471685835,Vadas,118566,3284,V,23,118511,Neaua,Mures,26,MS,389,Centru,7,rural,2851791713097
24.317930823162513,46.447490738303706,Ogra,118584,4312,IV,22,118575,Ogra,Mures,26,MS,1431,Centru,7,rural,2851843308213
24.309875273954514,46.471089739435733,Dileu Vechi,118593,4311,V,23,118575,Ogra,Mures,26,MS,256,Centru,7,rural,2851843704066
24.31114326005709,46.401262301430073,Giulus,118600,4247,V,23,118575,Ogra,Mures,26,MS,225,Centru,7,rural,2851843705292
24.35564618372641,46.391820716783819,Lascud,118619,3246,V,23,118575,Ogra,Mures,26,MS,211,Centru,7,rural,2851843706523
24.32083995154138,46.495341995542105,Vaideiu,118628,4311,V,23,118575,Ogra,Mures,26,MS,184,Centru,7,rural,2851843712648
24.203297992243055,46.559327822470195,Papiu Ilarian,118646,4371,IV,22,118637,Papiu Ilarian,Mures,26,MS,728,Centru,7,rural,2852111308458
24.237348862062177,46.581423830425976,Dobra,118655,4371,V,23,118637,Papiu Ilarian,Mures,26,MS,69,Centru,7,rural,2852111704111
24.214032941115573,46.570262288487818,Merisoru,118664,4371,V,23,118637,Papiu Ilarian,Mures,26,MS,96,Centru,7,rural,2852111707384
24.210633381255779,46.537333318830051,Sandru,118673,4370,V,23,118637,Papiu Ilarian,Mures,26,MS,2,Centru,7,rural,2852111711485
24.224713016005779,46.549486520997547,Ursoaia,118682,4371,V,23,118637,Papiu Ilarian,Mures,26,MS,129,Centru,7,rural,2852111712592
24.473399235440375,46.556113989986763,Panet,118708,4327,IV,22,118691,Panet,Mures,26,MS,2383,Centru,7,rural,2852128308562
24.429614364890455,46.539645820183587,Berghia,118717,4326,V,23,118691,Panet,Mures,26,MS,1209,Centru,7,rural,2852128701007
24.478116476522278,46.601682378822915,Cuiesd,118726,4327,V,23,118691,Panet,Mures,26,MS,718,Centru,7,rural,2852128703691
24.478623066650432,46.577327697436921,Hartau,118735,4327,V,23,118691,Panet,Mures,26,MS,315,Centru,7,rural,2852128705751
24.457141090543686,46.514656945325484,Santioana de Mures,118744,4324,V,23,118691,Panet,Mures,26,MS,1370,Centru,7,rural,2852128710669
24.693985382738312,46.491624590578141,Pasareni,118762,4330,IV,22,118753,Pasareni,Mures,26,MS,969,Centru,7,rural,2852130308574
24.713093142604269,46.492456733451768,Bolintineni,118771,4320,V,23,118753,Pasareni,Mures,26,MS,253,Centru,7,rural,2852130701336
24.707854270821848,46.473196911174476,Galateni,118780,4329,V,23,118753,Pasareni,Mures,26,MS,851,Centru,7,rural,2852130705023
24.710048077827771,46.73031089636001,Petelea,118806,4270,IV,22,118799,Petelea,Mures,26,MS,2372,Centru,7,rural,2852171308759
24.792958030828785,46.708914169380016,Habic,118815,4273,V,23,118799,Petelea,Mures,26,MS,393,Centru,7,rural,2852171705678
24.312197807076043,46.6760576009845,Pogaceaua,118833,4348,IV,22,118824,Pogaceaua,Mures,26,MS,1037,Centru,7,rural,2852228309156
24.2587682801515,46.636855650432331,Bologaia,118842,4348,V,23,118824,Pogaceaua,Mures,26,MS,43,Centru,7,rural,2852228701338
24.263551738662091,46.666677864097416,Ciulea,118851,4348,V,23,118824,Pogaceaua,Mures,26,MS,117,Centru,7,rural,2852228702897
24.281242815090504,46.675049610223915,Deleni,118860,4348,V,23,118824,Pogaceaua,Mures,26,MS,102,Centru,7,rural,2852228704008
24.337763679516382,46.677422264926967,Fantana Babii,118879,4348,V,23,118824,Pogaceaua,Mures,26,MS,2,Centru,7,rural,2852228704624
24.337050124045078,46.694171698090621,Parau Crucii,118888,4346,V,23,118824,Pogaceaua,Mures,26,MS,112,Centru,7,rural,2852228708651
24.249545041087622,46.660657862491377,Scurta,118897,4348,V,23,118824,Pogaceaua,Mures,26,MS,20,Centru,7,rural,2852228710786
24.292037989184962,46.69435347750084,Sicele,118904,4348,V,23,118824,Pogaceaua,Mures,26,MS,55,Centru,7,rural,2852228710899
24.263329824170455,46.682134448298648,Valea Sanpetrului,118913,4348,V,23,118824,Pogaceaua,Mures,26,MS,55,Centru,7,rural,2852228712963
24.271237043476741,46.66275881877889,Valeni,118922,4348,V,23,118824,Pogaceaua,Mures,26,MS,336,Centru,7,rural,2852228713131
24.992823637817157,46.972218139817265,Rastolita,118940,4228,IV,22,118931,Rastolita,Mures,26,MS,1588,Centru,7,rural,2852346309817
25.024234691472408,46.967843439610121,Andreneasa,118959,4228,V,23,118931,Rastolita,Mures,26,MS,197,Centru,7,rural,2852346700212
24.934074653345082,46.970121305991427,Borzia,118968,4228,V,23,118931,Rastolita,Mures,26,MS,85,Centru,7,rural,2852346701418
24.918249337384303,46.970866901559525,Galaoaia,118977,4228,V,23,118931,Rastolita,Mures,26,MS,74,Centru,7,rural,2852346705018
24.97719550704079,46.973367682089666,Iod,118986,4228,V,23,118931,Rastolita,Mures,26,MS,381,Centru,7,rural,2852346706170
24.396998051820191,46.690191588534617,Raciu,119000,4346,IV,22,118995,Raciu,Mures,26,MS,1507,Centru,7,rural,2852355309854
24.40602289189825,46.7151346879008,Caciulata,119019,4346,V,23,118995,Raciu,Mures,26,MS,189,Centru,7,rural,2852355702106
24.363309648084748,46.692907353838542,Coasta Mare,119028,4346,V,23,118995,Raciu,Mures,26,MS,140,Centru,7,rural,2852355702996
24.371662297262557,46.723787801905075,Cotorinau,119037,4346,V,23,118995,Raciu,Mures,26,MS,25,Centru,7,rural,2852355703428
24.431770486575754,46.741168335623343,Curete,119046,4346,V,23,118995,Raciu,Mures,26,MS,16,Centru,7,rural,2852355703727
24.372860879613015,46.716281424258803,Hagau,119055,4346,V,23,118995,Raciu,Mures,26,MS,59,Centru,7,rural,2852355705681
24.420053994646924,46.727928664846281,Lenis,119064,4346,V,23,118995,Raciu,Mures,26,MS,216,Centru,7,rural,2852355706573
24.443566639698226,46.703652544378542,Nima Raciului,119073,4346,V,23,118995,Raciu,Mures,26,MS,266,Centru,7,rural,2852355708054
24.39270757616071,46.747815971613875,Obarsie,119082,4346,V,23,118995,Raciu,Mures,26,MS,5,Centru,7,rural,2852355708139
24.356729970248882,46.708607493057464,Parau Crucii,119091,4346,V,23,118995,Raciu,Mures,26,MS,142,Centru,7,rural,2852355708650
24.408432712634038,46.72812146408733,Sanmartinu de Campie,119108,4346,V,23,118995,Raciu,Mures,26,MS,463,Centru,7,rural,2852355710624
24.333548530307276,46.733479706912647,Ulies,119117,4349,V,23,118995,Raciu,Mures,26,MS,552,Centru,7,rural,2852355712467
24.407525359825673,46.745364893922876,Valea Seaca,119126,4346,V,23,118995,Raciu,Mures,26,MS,24,Centru,7,rural,2852355712975
24.337578912584384,46.743166251925935,Valea Sanmartinului,119135,4349,V,23,118995,Raciu,Mures,26,MS,206,Centru,7,rural,2852355712962
24.368805803947104,46.736566587788325,Valea Uliesului,119144,4346,V,23,118995,Raciu,Mures,26,MS,38,Centru,7,rural,2852355713011
24.834420121811604,46.915662976159958,Rusii-Munti,119162,4238,IV,22,119153,Rusii-Munti,Mures,26,MS,1420,Centru,7,rural,2852435310232
24.81064446323338,46.907457260812166,Maioresti,119171,4235,V,23,119153,Rusii-Munti,Mures,26,MS,262,Centru,7,rural,2852435706955
24.831386323387303,46.924358505450748,Morareni,119180,4229,V,23,119153,Rusii-Munti,Mures,26,MS,458,Centru,7,rural,2852435707693
24.864380760066219,46.932022295178037,Sebes,119199,4229,V,23,119153,Rusii-Munti,Mures,26,MS,156,Centru,7,rural,2852435710806
24.962927398201469,46.195031322404461,Saschiz,119215,3072,IV,22,119206,Saschiz,Mures,26,MS,1591,Centru,7,rural,2852460310305
24.997203544332145,46.146553103841441,Cloasterf,119224,3074,V,23,119206,Saschiz,Mures,26,MS,187,Centru,7,rural,2852460702969
25.0288366673926,46.155548090983324,Mihai Viteazu,119233,3073,V,23,119206,Saschiz,Mures,26,MS,355,Centru,7,rural,2852460707463
24.164722124641994,46.753234969705261,Sarmasu,119251,4388,IV,17,119242,Oras Sarmasu,Mures,26,MS,3780,Centru,7,urban,2832021210296
24.143615524628313,46.733528204225081,Balda,119260,4388,V,18,119242,Oras Sarmasu,Mures,26,MS,1171,Centru,7,urban,2832021600443
24.181079887851279,46.719710559349167,Larga,119279,4388,V,18,119242,Oras Sarmasu,Mures,26,MS,76,Centru,7,urban,2832021606460
24.199084367064394,46.743554827163635,Morut,119288,4388,V,18,119242,Oras Sarmasu,Mures,26,MS,107,Centru,7,urban,2832021607717
24.178853525989474,46.76062459584206,Sarmasel,119297,4388,V,18,119242,Oras Sarmasu,Mures,26,MS,724,Centru,7,urban,2832021610528
24.206262230055966,46.785352834058067,Sarmasel-Gara,119304,4388,V,18,119242,Oras Sarmasu,Mures,26,MS,755,Centru,7,urban,2832021610529
24.18650037921768,46.731688797693074,Titiana,119313,4388,V,18,119242,Oras Sarmasu,Mures,26,MS,45,Centru,7,urban,2832021612084
24.101940860052782,46.73797940019864,Visinelu,119322,4388,V,18,119242,Oras Sarmasu,Mures,26,MS,548,Centru,7,urban,2832021613440
24.842744927196357,46.430612419181863,Sangeorgiu de Padure,119340,3280,IV,17,119331,Oras   Sangeorgiu de Padure,Mures,26,MS,4794,Centru,7,urban,2831871210601
24.924373967079596,46.405644627128183,Bezid,119359,3281,V,18,119331,Oras   Sangeorgiu de Padure,Mures,26,MS,780,Centru,7,urban,2831871601046
24.90639449561877,46.422664718060318,Bezidu Nou,119368,3280,V,18,119331,Oras   Sangeorgiu de Padure,Mures,26,MS,126,Centru,7,urban,2831871601047
24.899149301549475,46.400181382316106,Lotu,119377,3280,V,18,119331,Oras   Sangeorgiu de Padure,Mures,26,MS,15,Centru,7,urban,2831871606737
24.137687565988777,46.558287373704268,Sanger,119395,4376,IV,22,119386,Sanger,Mures,26,MS,1197,Centru,7,rural,2852522310604
24.146231699207611,46.574151669295105,Barza,119402,4376,V,23,119386,Sanger,Mures,26,MS,87,Centru,7,rural,2852522700873
24.167261307123493,46.532429146155394,Cipaieni,119411,4370,V,23,119386,Sanger,Mures,26,MS,811,Centru,7,rural,2852522702841
24.087645982220682,46.545996528109207,Dalu,119420,4376,V,23,119386,Sanger,Mures,26,MS,8,Centru,7,rural,2852522703799
24.198444543022976,46.524678648079735,Pripoare,119439,4370,V,23,119386,Sanger,Mures,26,MS,80,Centru,7,rural,2852522709529
24.199931949213514,46.531725500708305,Valisoara,119448,4370,V,23,119386,Sanger,Mures,26,MS,3,Centru,7,rural,2852522713158
24.11935975965709,46.541313010307405,Zapodea,119457,4376,V,23,119386,Sanger,Mures,26,MS,133,Centru,7,rural,2852522713649
24.351332438430791,46.456457532787496,Sanpaul,119475,4311,IV,22,119466,Sanpaul,Mures,26,MS,1514,Centru,7,rural,2852531310641
24.382964836363794,46.476643677039434,Chirileu,119484,4311,V,23,119466,Sanpaul,Mures,26,MS,582,Centru,7,rural,2852531702675
24.331772668380221,46.462122158049738,Dileu Nou,119493,4311,V,23,119466,Sanpaul,Mures,26,MS,203,Centru,7,rural,2852531704065
24.372332400863023,46.481570986395745,Sanmarghita,119509,4311,V,23,119466,Sanpaul,Mures,26,MS,266,Centru,7,rural,2852531710621
24.37597443668993,46.438552837074738,Valea Izvoarelor,119518,4311,V,23,119466,Sanpaul,Mures,26,MS,1130,Centru,7,rural,2852531712781
24.262428467169194,46.715887719507037,Sanpetru de Campie,119536,4391,IV,22,119527,Sanpetru de Campie,Mures,26,MS,1110,Centru,7,rural,2852533310645
24.245494121998362,46.688965072611261,Barlibas,119545,4391,V,23,119527,Sanpetru de Campie,Mures,26,MS,156,Centru,7,rural,2852533700842
24.268584941551676,46.7425597006525,Dambu,119554,4391,V,23,119527,Sanpetru de Campie,Mures,26,MS,617,Centru,7,rural,2852533703876
24.266781440929744,46.761784830973653,Satu Nou,119563,4391,V,23,119527,Sanpetru de Campie,Mures,26,MS,246,Centru,7,rural,2852533710357
24.296651621879345,46.726952950692286,Sangeorgiu de Campie,119572,4349,V,23,119527,Sanpetru de Campie,Mures,26,MS,433,Centru,7,rural,2852533710598
24.227592720080704,46.733312463313837,Tusinu,119581,4391,V,23,119527,Sanpetru de Campie,Mures,26,MS,716,Centru,7,rural,2852533712331
24.773796315609697,46.778085392166375,Solovastru,119607,4280,IV,22,119590,Solovastru,Mures,26,MS,1540,Centru,7,rural,2852631311128
24.796706044430383,46.784066259591043,Jabenita,119616,4280,V,23,119590,Solovastru,Mures,26,MS,1128,Centru,7,rural,2852631706337
25.23921161986209,46.960184796854492,Stanceni,119634,4226,IV,22,119625,Stanceni,Mures,26,MS,804,Centru,7,rural,2852654311236
25.268729321990566,46.950376371952082,Ciobotani,119643,4226,V,23,119625,Stanceni,Mures,26,MS,329,Centru,7,rural,2852654702768
25.192894144485255,46.968458503056503,Mestera,119652,4226,V,23,119625,Stanceni,Mures,26,MS,459,Centru,7,rural,2852654707405
24.520971783545054,46.396328356669216,Suplac,119670,3256,IV,22,119661,Suplac,Mures,26,MS,844,Centru,7,rural,2852690311431
24.464444062405036,46.387584103235575,Idrifaia,119689,3252,V,23,119661,Suplac,Mures,26,MS,733,Centru,7,rural,2852690706073
24.542464469806347,46.384484463712504,Laslau Mare,119698,3257,V,23,119661,Suplac,Mures,26,MS,489,Centru,7,rural,2852690706464
24.556756549325968,46.368100817815382,Laslau Mic,119705,3258,V,23,119661,Suplac,Mures,26,MS,427,Centru,7,rural,2852690706465
24.526264000225183,46.4190617056272,Vaidacuta,119714,4316,V,23,119661,Suplac,Mures,26,MS,55,Centru,7,rural,2852690712644
24.731695051503852,46.814370603843649,Suseni,119732,4245,IV,22,119723,Suseni,Mures,26,MS,1461,Centru,7,rural,2852699311468
24.724411409534664,46.844781567299378,Luieriu,119741,4246,V,23,119723,Suseni,Mures,26,MS,826,Centru,7,rural,2852699706770
24.212534201810733,46.641677135165352,Saulia,119769,4383,IV,22,119750,Saulia,Mures,26,MS,1543,Centru,7,rural,2852710311505
24.212208774510323,46.618973423662929,Leorinta-Saulia,119778,4383,V,23,119750,Saulia,Mures,26,MS,162,Centru,7,rural,2852710706583
24.23585670904227,46.639593998301415,Macicasesti,119787,4383,V,23,119750,Saulia,Mures,26,MS,154,Centru,7,rural,2852710707067
24.177313719936887,46.63298165923603,Padurea,119796,4383,V,23,119750,Saulia,Mures,26,MS,144,Centru,7,rural,2852710708493
24.390502037437553,46.654886725701964,Sincai,119812,4347,IV,22,119803,Sincai,Mures,26,MS,1142,Centru,7,rural,2852740311595
24.420088668866775,46.665701868668265,Lechincioara,119821,4347,V,23,119803,Sincai,Mures,26,MS,116,Centru,7,rural,2852740706547
24.358148672574998,46.678122627763592,Pusta,119830,4347,V,23,119803,Sincai,Mures,26,MS,148,Centru,7,rural,2852740709629
24.336873685408779,46.654940997238796,Sincai-Fanate,119849,4347,V,23,119803,Sincai,Mures,26,MS,288,Centru,7,rural,2852740711596
24.080770476747194,46.579522496125598,Taureni,119867,4379,IV,22,119858,Taureni,Mures,26,MS,886,Centru,7,rural,2852813311875
24.072471754273085,46.567947335553846,Fanate,119876,4379,V,23,119858,Taureni,Mures,26,MS,85,Centru,7,rural,2852813704615
24.091942345725126,46.564503600318282,Moara de Jos,119885,4379,V,23,119858,Taureni,Mures,26,MS,83,Centru,7,rural,2852813707610
24.458808585305533,46.485727273261624,Ungheni,119901,4314,IV,17,119894,Oras Ungheni,Mures,26,MS,3731,Centru,7,urban,2832065212501
24.446019686713711,46.414509255466598,Cerghid,119910,3254,V,18,119894,Oras Ungheni,Mures,26,MS,540,Centru,7,urban,2832065602493
24.448211295898481,46.443682827699128,Cerghizel,119929,3255,V,18,119894,Oras Ungheni,Mures,26,MS,740,Centru,7,urban,2832065602494
24.441648453581561,46.491223898636711,Moresti,119938,4314,V,18,119894,Oras Ungheni,Mures,26,MS,362,Centru,7,urban,2832065607706
24.416718258986666,46.465005617298125,Recea,119947,4311,V,18,119894,Oras Ungheni,Mures,26,MS,147,Centru,7,urban,2832065609915
24.396146496185047,46.503761864657811,Sausa,119956,4311,V,18,119894,Oras Ungheni,Mures,26,MS,270,Centru,7,urban,2832065611507
24.415395030338743,46.475526637790892,Vidrasau,119965,4313,V,18,119894,Oras Ungheni,Mures,26,MS,819,Centru,7,urban,2832065613359
24.077577438949398,46.622570214683286,Valea Larga,119983,4381,IV,22,119974,Valea Larga,Mures,26,MS,1897,Centru,7,rural,2852988312788
24.091555726395416,46.61131711026696,Gradini,119992,4380,V,23,119974,Valea Larga,Mures,26,MS,213,Centru,7,rural,2852988705472
24.098368120556515,46.628124846370582,Malaesti,120003,4380,V,23,119974,Valea Larga,Mures,26,MS,13,Centru,7,rural,2852988707144
24.061072287232538,46.634583827316945,Poduri,120012,4380,V,23,119974,Valea Larga,Mures,26,MS,116,Centru,7,rural,2852988709142
24.068520402124882,46.645153922719167,Valea Fratiei,120021,4380,V,23,119974,Valea Larga,Mures,26,MS,211,Centru,7,rural,2852988712761
24.084807836556116,46.64699426232513,Valea Glodului,120030,4380,V,23,119974,Valea Larga,Mures,26,MS,185,Centru,7,rural,2852988712766
24.053702062394127,46.619685838067724,Valea Padurii,120049,4380,V,23,119974,Valea Larga,Mures,26,MS,233,Centru,7,rural,2852988712908
24.052609069801001,46.636763900085839,Valea Surii,120058,4381,V,23,119974,Valea Larga,Mures,26,MS,322,Centru,7,rural,2852988713000
24.089195232225261,46.633064391168595,Valea Uriesului,120067,4381,V,23,119974,Valea Larga,Mures,26,MS,319,Centru,7,rural,2852988713015
24.802138816292416,46.57959050379052,Vargata,120085,4339,IV,22,120076,Vargata,Mures,26,MS,472,Centru,7,rural,2853036313176
24.830485779823992,46.599133777883011,Grausorul,120094,4343,V,23,120076,Vargata,Mures,26,MS,238,Centru,7,rural,2853036705490
24.801468559303295,46.584493096639491,Mitresti,120101,4339,V,23,120076,Vargata,Mures,26,MS,371,Centru,7,rural,2853036707596
24.781877336773345,46.608121472697917,Vadu,120110,4339,V,23,120076,Vargata,Mures,26,MS,283,Centru,7,rural,2853036712622
24.79691456458897,46.563286504771817,Valea,120129,4338,V,23,120076,Vargata,Mures,26,MS,656,Centru,7,rural,2853036712660
24.765068279727512,46.961093260327573,Vatava,120147,4231,IV,22,120138,Vatava,Mures,26,MS,918,Centru,7,rural,2853038313193
24.80491422471415,46.942067433438886,Dumbrava,120156,4875,V,23,120138,Vatava,Mures,26,MS,842,Centru,7,rural,2853038704409
24.768552312832387,46.939193231208954,Rapa de Jos,120165,4231,V,23,120138,Vatava,Mures,26,MS,608,Centru,7,rural,2853038709879
24.792159192496872,46.352149231434232,Vetca,120183,3277,IV,22,120174,Vetca,Mures,26,MS,462,Centru,7,rural,2853074313330
24.831971349706368,46.328045213958539,Jacodu,120192,3277,V,23,120174,Vetca,Mures,26,MS,341,Centru,7,rural,2853074706339
24.7760672616524,46.37551424311475,Salasuri,120209,3276,V,23,120174,Vetca,Mures,26,MS,169,Centru,7,rural,2853074710423
24.599059491867383,46.296126106594663,Viisoara,120227,3086,IV,22,120218,Viisoara,Mures,26,MS,690,Centru,7,rural,2853088313394
24.545060160918073,46.328525555700708,Ormenis,120236,3088,V,23,120218,Viisoara,Mures,26,MS,398,Centru,7,rural,2853088708347
24.551323016876516,46.283675368971295,Santioana,120245,3087,V,23,120218,Viisoara,Mures,26,MS,548,Centru,7,rural,2853088710668
24.92820334186127,46.242418719209873,Vanatori,120263,3062,IV,22,120254,Vanatori,Mures,26,MS,1595,Centru,7,rural,2853044313246
25.087223011012686,46.180687456367082,Archita,120272,3061,V,23,120254,Vanatori,Mures,26,MS,760,Centru,7,rural,2853044700276
25.014187799832371,46.241099573949541,Feleag,120281,3063,V,23,120254,Vanatori,Mures,26,MS,255,Centru,7,rural,2853044704686
24.989212100432344,46.230409810793638,Mureni,120290,3064,V,23,120254,Vanatori,Mures,26,MS,409,Centru,7,rural,2853044707827
24.926282328490167,46.263014833680799,Soard,120307,3066,V,23,120254,Vanatori,Mures,26,MS,628,Centru,7,rural,2853044711633
24.627124856397906,46.70589615679912,Voivodeni,120325,4269,IV,22,120316,Voivodeni,Mures,26,MS,1768,Centru,7,rural,2853130313546
24.581549778455511,46.705091672095641,Toldal,120334,4265,V,23,120316,Voivodeni,Mures,26,MS,356,Centru,7,rural,2853130712119
24.618089434077017,46.350594890856556,Zagar,120352,2365,IV,22,120343,Zagar,Mures,26,MS,1035,Centru,7,rural,2853154313611
24.588708215243443,46.362802897118129,Seleus,120361,3264,V,23,120343,Zagar,Mures,26,MS,220,Centru,7,rural,2853154710852
24.130804214573992,46.613824988201792,Zau de Campie,120389,4377,IV,22,120370,Zau de Campie,Mures,26,MS,2706,Centru,7,rural,2853160313629
24.181934925739025,46.580871858786708,Barbosi,120398,4372,V,23,120370,Zau de Campie,Mures,26,MS,380,Centru,7,rural,2853160700762
24.13197760827568,46.639396812003156,Botei,120405,4377,V,23,120370,Zau de Campie,Mures,26,MS,133,Centru,7,rural,2853160701433
24.168327516146846,46.6449471133337,Bujor-Hodaie,120414,4377,V,23,120370,Zau de Campie,Mures,26,MS,26,Centru,7,rural,2853160701850
24.17041853781285,46.606235462579754,Ciretea,120423,4372,V,23,120370,Zau de Campie,Mures,26,MS,72,Centru,7,rural,2853160702861
24.126958967245827,46.601153774678785,Gaura Sangerului,120432,4377,V,23,120370,Zau de Campie,Mures,26,MS,119,Centru,7,rural,2853160705000
24.190794806657902,46.582689170163682,Malea,120441,4377,V,23,120370,Zau de Campie,Mures,26,MS,37,Centru,7,rural,2853160706963
24.112048330284399,46.611738129315185,Stefaneaca,120450,4377,V,23,120370,Zau de Campie,Mures,26,MS,30,Centru,7,rural,2853160711693
24.156535594984987,46.59386129185588,Tau,120469,4377,V,23,120370,Zau de Campie,Mures,26,MS,59,Centru,7,rural,2853160711870
24.740058824105823,46.49577817715177,Sanvasii,120520,0,,23,116867,Galesti,Mures,26,MS,,Centru,7,rural,2851073710674
24.568062747033345,46.47922572276358,Ciba,120539,0,,23,116288,Craciunesti,Mures,26,MS,,Centru,7,rural,2850767702726
24.59973448659202,46.479961346645162,Foi,120548,0,,23,116288,Craciunesti,Mures,26,MS,,Centru,7,rural,2850767704825
24.555745535704407,46.477055203045872,Nicolesti,120557,0,,23,116288,Craciunesti,Mures,26,MS,,Centru,7,rural,2850767708029
24.329071147426895,46.330605568436162,Seuca,120566,0,,23,116938,Ganesti,Mures,26,MS,,Centru,7,rural,2851076710871
